#dP2021  1 11  0  0  0.00000000      96 __u+U ITR00 FIT  IAC
## 2140  86400.00000000   900.00000000 59225 0.0000000000000
+  115   C02C03C04C05C06C07C08C09C10C11C12C13C14C16C19C20C21
+        C22C23C24C25C26C27C28C29C30C32C33C34C35C36C37E01E02
+        E03E04E05E07E08E09E11E12E13E14E15E18E19E21E24E25E26
+        E27E30E31E33E36G01G02G03G04G05G06G07G08G09G10G11G12
+        G13G14G15G16G17G18G19G20G21G22G23G24G25G26G27G28G29
+        G30G31G32J01J02J07R01R02R03R04R05R06R07R08R09R10R11
+        R12R13R14R15R16R17R18R19R20R21R22R23R24  0  0  0  0
++        13 13 14 13  8  9  9  8  8  8  8  8  8  8  8  8  8
++         8  8  8  8  8  8  8  8  8  8  9  8  8  8  8  4  4
++         5  4  5  4  4  5  4  4  5  5  4  4  4  5  4  5  5
++         4  5  4  4  5  4  4  3  4  4  4  4  4  4  4  4  4
++         4  3  4  4  4  4  4  4  4  4  3  4  4  4  4  4  4
++         4  4  4  9  9 14  7  6  6  6  6 13  6  6  6 13  8
++         6  7  6  6  6  6  6  6  7  6  7 13  6  0  0  0  0
%c M  cc GPS ccc cccc cccc cccc cccc ccccc ccccc ccccc ccccc
%c cc cc ccc ccc cccc cccc cccc cccc ccccc ccccc ccccc ccccc
%f  0.0000000  0.000000000  0.00000000000  0.000000000000000
%f  0.0000000  0.000000000  0.00000000000  0.000000000000000
%i    0    0    0    0      0      0      0      0         0
%i    0    0    0    0      0      0      0      0         0
/* INFORMATION & ANALYSIS CENTER (IAC)            RAPID DATA
/* S/V CLOCKS ARE ALIGNED TO GNSS TIME                      
/* G:C1WC2W R:C1PC2P E:C1XC5X C:C2IC6I J:C1CC2S             
/* PCV:IGS14_2134 OL/AL:FES2004  NONE     YN ORB:CoN CLK:CoN
*  2021 01 11  6  0  0.00000000
PC02   4499.060020  41901.476579   -416.124221    603.474718
PC03 -14714.286740  39511.453609  -1269.558239    297.432428
PC04 -39655.924240  14355.564320   -494.576892   -380.529875
PC05  21921.715632  36006.277130   -213.266630   -529.061406
PC06 -22527.896322  26523.119252  23901.260937    124.812837
PC07 -12448.329131  39048.665644  11214.734164   -215.935130
PC08  -6511.874984  21502.005942 -35510.284284   -883.775059
PC09  -5736.460904  26289.508293  32623.182181    811.452109
PC10  -3599.954388  42245.385505    280.949366   -106.188542
PC11 -27176.591165    515.322012   6489.219950   -878.186734
PC12 -16043.966768 -10550.231521  20299.538646    722.278644
PC13   7485.990325  29287.064374 -29169.222015     92.722706
PC14 -16654.721691    746.879793 -22364.559266   -122.515691
PC16 -21654.583007  26493.534539  24581.176127   -656.276659
PC19  17367.484014 -11417.142546  18637.485020    686.665302
PC20  13726.727070   8602.298029  22735.860207   -909.347352
PC21  -1670.658899 -24393.921215 -13423.295973   -788.248528
PC22  11062.466892 -25357.434307   3563.996497   -841.086357
PC23  -5102.404797  17319.275041  21275.948811   -882.658780
PC24 -21298.546401 -16430.376598   7482.873631   -740.178542
PC25 -18526.856060   1673.185558  20802.960943   -893.211811
PC26 -12564.964211 -23276.738137  -8961.868503    964.623738
PC27   5883.009672  14953.491176 -22828.824781    464.459785
PC28 -15001.240009  15308.928050 -17866.270909   -123.147409
PC29  26703.273512  -7725.673649   2471.175309    336.981912
PC30  23136.467234   5269.663522 -14702.692606    429.644971
PC32   1857.288277  24403.778369  13420.492465   -882.842538
PC33 -17329.004001  11442.657408 -18645.465796   -909.410493
PC34 -23498.154430  -4940.596735  14196.229668   -765.828725
PC35  14746.635861 -15813.685697  17661.283254   -471.178279
PC36  18693.674024   -944.251733 -20674.386373   -779.998063
PC37  11362.142552  23562.737783   9696.148906   -860.650095
PE01  11678.334126 -15178.551383 -22572.542073  -1022.320095
PE02 -11633.870937  15251.598600  22536.818281    190.190178
PE03 -22163.841490  19459.150473  -2581.191060   -386.032326
PE04   8976.933203 -23898.709504 -14985.094337   -686.441108
PE05 -22525.894647   3530.819078 -18880.053921   -313.868193
PE07   9743.620769  14305.623885  24010.984139   -486.168592
PE08  -8655.248211  23841.443681  15261.432538   6063.773075
PE09  -9863.179394 -14025.159110 -24130.611693   5802.979312
PE11 -20446.394006 -15422.305894  14831.960334   6488.759827
PE12    606.111155 -16503.941977  24571.979009   5412.572427
PE13  20213.206448  15417.371924 -15151.952744    410.041613
PE14 -19758.617387  -3106.988633  14870.143539  -1290.692663
PE15   -437.934011  16437.950605 -24597.892387    834.837724
PE18  17251.659340  12572.080874 -23270.167304  -1410.608170
PE19  22928.616581 -18110.928620   4754.935791    175.489478
PE21  17581.006378   5995.339397 -23044.271536   -642.210679
PE24 -13070.267819 -24796.587002   9550.177910   -683.367877
PE25 -17597.486334  -6213.394269  22985.215217   -524.084392
PE26  28916.821782   5013.469718   3845.321572   2278.807293
PE27  13453.188327  24336.815113 -10116.151951     53.571215
PE30    781.920277  28070.806391   9316.317882   3272.340412
PE31  -1459.135585 -28271.247871  -8660.229651   -477.255647
PE33  20804.377295  -7795.210693  19574.781268   -464.772498
PE36 -28938.596112  -5353.126876  -3157.252063    455.815288
PG01  21974.184695  14784.688828  -3948.110873    782.134853
PG02  -3705.689565 -17240.938521  20518.862092   -564.678384
PG03  12792.127815  15054.821311  17720.967313    -53.256851
PG04  16251.185836   6654.490878  19942.194885   -171.794052
PG05  -3314.653194 -26193.849703  -1915.842583    -30.686045
PG06  11026.601109 -10618.510217  21774.646306     -4.632095
PG07  24186.832530   4780.191867 -10161.332463     17.152396
PG08   9173.461233  11967.375413 -21864.114201     -6.168076
PG09  22973.089965  -4408.392742  12533.873285   -311.482474
PG10 -11925.708090  14913.814177 -18242.471909    -36.550873
PG11  17187.834071  12510.698005 -16153.732058    -56.278799
PG12  -9875.734697 -19093.514002  15457.472214     14.562453
PG13   1995.157645 -16646.293882 -20708.821789     84.633251
PG14  13435.163639 -12739.229680 -19050.881695     83.464210
PG15 -11764.295942 -11122.754866 -21434.795893   -177.131684
PG16   -270.999479  26270.056842  -1532.412163   -263.379037
PG17  21594.605217 -15016.917866   4059.021153    378.722567
PG18 -23096.738419  -2621.263100 -12907.901875    340.362257
PG19  17812.729230 -16525.651885  10340.953271    -53.462087
PG20 -15610.934839   2214.245984 -21437.523305    525.217544
PG21  18131.156484  16091.258772 -10570.867349     85.771527
PG22  11189.113381  21583.012120  11083.988369   -700.259405
PG23 -14907.395696   3507.773875 -21722.888813    115.540829
PG24 -20064.806813 -15694.391545  -8431.282940      3.835092
PG25 -14935.504011  -5073.032147  21158.962623     57.401579
PG26  -5459.210947  23772.123007  10145.800068     28.164079
PG27  -4164.401282  17942.842456 -19148.590517    -53.616406
PG28  12193.336758 -16205.901844 -16681.872438    631.302690
PG29 -22806.677099   2101.152845  13448.642285   -273.547161
PG30  18715.076432  -4863.818807 -18255.415711   -367.045421
PG31  -9236.549373  12300.895007  21599.470469    -93.174174
PG32 -20407.331315  16412.195317   3944.318950     13.647968
PJ01 -25724.426135  31759.530217  -5896.619624   -336.227374
PJ02 -25485.839424  23151.501280  29236.117759      0.639466
PJ07 -25403.145765  33648.290878    -15.194038      0.055750
PR01  14929.234670 -18468.995763   9293.635708     73.325912
PR02   6048.444000 -21866.179970 -11687.875418    462.389857
PR03  -6005.823632 -10922.720241 -22226.855245     28.921177
PR04 -14317.162072   6197.322330 -20156.383229     69.504728
PR05 -14734.090934  19680.801869  -6745.395604     64.522409
PR06  -4695.570950  21709.464705  12503.550146    190.782982
PR07   6480.023522  10276.218775  22453.775150    -42.130324
PR08  14441.947797  -6154.319095  20161.147646    -56.793394
PR09   6722.322666  21821.205427  11453.663996     17.954971
PR10  15063.285790  19896.420465  -5096.943272    -65.425766
PR11  14875.674866   6424.243758 -19693.781226      4.669695
PR12   5738.073483 -11002.810160 -22267.009182    195.700181
PR13  -6599.588507 -21576.390372 -11923.463592    -49.165122
PR14 -15167.449055 -19608.415582   6005.722404     59.724020
PR15 -14763.360143  -6243.479652  19862.570010    105.950068
PR16  -5146.552478  11815.289358  21964.714222    -10.079998
PR17 -17467.592837  -7578.007279  17010.550220    390.230124
PR18 -25412.975158   -671.137690   1751.904380     62.761075
PR19 -20545.061715   5810.529055 -13953.225817   -127.411416
PR20  -1437.178153  10319.093940 -23266.963389   -430.870052
PR21  18305.030281   7198.636644 -16217.538501   -179.560709
PR22  25552.191161    252.526658   -541.317651    -91.865340
PR23  14462.941034  -8585.192479  19177.299600    358.686078
PR24    537.828716 -10841.301707  23106.590710     27.347038
EOF
